[{"OBJECT_NAME":"NUSAT-44 (MARIA MITCHELL)","OBJECT_ID":"2024-043AA","EPOCH":"2026-03-09T22:12:18.524160","MEAN_MOTION":15.29764305,"ECCENTRICITY":0.0007331,"INCLINATION":97.5299,"RA_OF_ASC_NODE":207.7691,"ARG_OF_PERICENTER":214.9017,"MEAN_ANOMALY":145.1743,"EPHEMERIS_TYPE":0,"CLASSIFICATION_TYPE":"U","NORAD_CAT_ID":59122,"ELEMENT_SET_NO":999,"REV_AT_EPOCH":11209,"BSTAR":0.00061063193,"MEAN_MOTION_DOT":0.00017562,"MEAN_MOTION_DDOT":0},{"OBJECT_NAME":"STARLINK-31614","OBJECT_ID":"2024-057J","EPOCH":"2026-03-09T08:02:24.496800","MEAN_MOTION":15.27573229,"ECCENTRICITY":0.00010808,"INCLINATION":43.0033,"RA_OF_ASC_NODE":189.1823,"ARG_OF_PERICENTER":252.0232,"MEAN_ANOMALY":108.0502,"EPHEMERIS_TYPE":0,"CLASSIFICATION_TYPE":"U","NORAD_CAT_ID":59328,"ELEMENT_SET_NO":999,"REV_AT_EPOCH":10978,"BSTAR":-1.7321222e-5,"MEAN_MOTION_DOT":-7.39e-6,"MEAN_MOTION_DDOT":0}]
